STARLINK-1468           
1 45734U 20038E   23299.93560184  .00007767  00000+0  36012-3 0  9998
2 45734  53.0481 137.1592 0000478 319.9964  40.0996 15.20988810186166
STARLINK-1471           
1 45735U 20038F   23299.89790065  .00004326  00000+0  30902-3 0  9997
2 45735  53.0535 158.8201 0001491  79.0562 281.0595 15.06411529185846
STARLINK-1472           
1 45736U 20038G   23299.34300456  .00149301  00000+0  82152-3 0  9996
2 45736  53.0458 337.6491 0005959  35.1906 324.9507 15.78759580189482
STARLINK-1474           
1 45738U 20038J   23299.88684608  .00019839  00000+0  13460-2 0  9998
2 45738  53.0527 158.8685 0001522  98.3695 261.7466 15.06428153185845
STARLINK-1475           
1 45739U 20038K   23299.90065133  .00010488  00000+0  72221-3 0  9990
2 45739  53.0530 118.7979 0001260  75.6524 284.4604 15.06386665186409
STARLINK-1479           
1 45740U 20038L   23299.89421731  .00001046  00000+0  89107-4 0  9992
2 45740  53.0527 158.8304 0001382  91.7917 268.3231 15.06412239185845
STARLINK-1480           
1 45741U 20038M   23299.86472932  .00005870  00000+0  41256-3 0  9990
2 45741  53.0524 158.9689 0001558  84.9508 275.1659 15.06405395185851
STARLINK-1481           
1 45742U 20038N   23299.85736233  .00008062  00000+0  55925-3 0  9991
2 45742  53.0530 159.0035 0001356 102.0401 258.0740 15.06414801185837
STARLINK-1483           
1 45743U 20038P   23299.87944848  .00021054  00000+0  14259-2 0  9997
2 45743  53.0533 158.8848 0001697  81.6054 278.5127 15.06456490185841
STARLINK-1500           
1 45744U 20038Q   23299.84630020  .00004892  00000+0  34699-3 0  9991
2 45744  53.0532 159.0463 0001698 113.8994 246.2173 15.06409460185847
STARLINK-1503           
1 45745U 20038R   23299.90159219  .00007985  00000+0  55415-3 0  9990
2 45745  53.0525 158.8023 0001227  82.2196 277.8932 15.06412713185848
STARLINK-1504           
1 45746U 20038S   23299.84999098  .00002967  00000+0  21795-3 0  9990
2 45746  53.0525 159.0315 0001417  93.1894 266.9258 15.06406778185836
STARLINK-1506           
1 45747U 20038T   23299.85367429  .00002364  00000+0  17751-3 0  9997
2 45747  53.0537 159.0169 0001975 121.6712 238.4469 15.06403140185841
STARLINK-1507           
1 45748U 20038U   23299.84261642  .00010191  00000+0  70184-3 0  9993
2 45748  53.0541 159.0788 0001399 110.7857 249.3282 15.06410205185836
STARLINK-1391           
1 45750U 20038W   23299.93660719  .00005955  00000+0  41824-3 0  9995
2 45750  53.0523 138.6438 0000721  95.9289 264.1782 15.06405933186142
STARLINK-1464           
1 45751U 20038X   23299.93292064 -.00000536  00000+0 -17053-4 0  9990
2 45751  53.0534 138.6592 0001643  80.7667 279.3508 15.06403154186149
STARLINK-1476           
1 45753U 20038Z   23299.94398269  .00003154  00000+0  23047-3 0  9993
2 45753  53.0530 138.6151 0001638  81.2905 278.8269 15.06414177186148
STARLINK-1477           
1 45754U 20038AA  23299.88132085  .00009265  00000+0  63993-3 0  9992
2 45754  53.0528 138.8968 0001308  85.8383 274.2755 15.06407209186135
STARLINK-1478           
1 45755U 20038AB  23299.89974604  .00004835  00000+0  34317-3 0  9991
2 45755  53.0526 138.8110 0001355  89.3713 270.7431 15.06408809186129
STARLINK-1484           
1 45756U 20038AC  23299.89533003 -.00102663  00000+0 -70478-2 0  9993
2 45756  53.0525 138.8236 0001633  82.8360 277.2815 15.06006943186124
STARLINK-1486           
1 45757U 20038AD  23299.85719536  .00011255  00000+0  50849-3 0  9992
2 45757  53.0575 120.9665 0002666 116.7972 243.3297 15.21433448186377
STARLINK-1487           
1 45758U 20038AE  23299.94106583  .00009751  00000+0  43157-3 0  9997
2 45758  53.0479 118.8170 0002389 215.6929 144.3907 15.22296948186417
STARLINK-1493           
1 45759U 20038AF  23299.82235618  .00004494  00000+0  32032-3 0  9996
2 45759  53.0538 139.1609 0001069  91.0769 269.0343 15.06404884186117
STARLINK-1494           
1 45760U 20038AG  23299.89237495  .00005213  00000+0  36857-3 0  9999
2 45760  53.0525 138.8461 0001462 106.9700 253.1449 15.06405742186132
STARLINK-1499           
1 45762U 20038AJ  23299.81655323  .00013995  00000+0  58211-3 0  9991
2 45762  53.0063 104.2477 0001520 156.6436 203.4630 15.24049001186624
STARLINK-1502           
1 45764U 20038AL  23299.85551733  .00003387  00000+0  24611-3 0  9998
2 45764  53.0524 139.0107 0001401  90.4793 269.6356 15.06411573186135
STARLINK-1509           
1 45766U 20038AN  23299.86258042  .00017494  00000+0  60439-3 0  9990
2 45766  53.0472 108.9397 0002852 145.6216 214.4968 15.30034999186541
STARLINK-1511           
1 45767U 20038AP  23299.90344223  .00002649  00000+0  19661-3 0  9990
2 45767  53.0529 138.7950 0001383 105.2271 254.8871 15.06412208186123
STARLINK-1521           
1 45768U 20038AQ  23299.66667824  .01366731  00000+0  58611-1 0  9991
2 45768  53.0526 139.6335 0001495 106.7002 265.8820 15.19419756  5798
STARLINK-1459           
1 45769U 20038AR  23299.84537270  .00005971  00000+0  41932-3 0  9998
2 45769  53.0530 159.0859 0001419  90.4930 269.6222 15.06407856185843
STARLINK-1462           
1 45770U 20038AS  23299.91169981  .00003144  00000+0  22979-3 0  9998
2 45770  53.0528 118.7576 0001455  79.7612 280.3541 15.06415341186402
STARLINK-1463           
1 45771U 20038AT  23299.90526947  .00001771  00000+0  13773-3 0  9993
2 45771  53.0531 118.7888 0000957  88.1472 271.9626 15.06408817186407
STARLINK-1470           
1 45772U 20038AU  23299.82786972  .00004581  00000+0  32608-3 0  9991
2 45772  53.0533 119.1366 0001254  90.4550 269.6583 15.06413984186407
STARLINK-1482           
1 45773U 20038AV  23299.82049865  .00002034  00000+0  15538-3 0  9999
2 45773  53.0525 119.1685 0001380  93.5510 266.5637 15.06410184186408
STARLINK-1485           
1 45774U 20038AW  23299.85735130  .00001981  00000+0  15183-3 0  9996
2 45774  53.0527 119.0022 0001399  88.3820 271.7329 15.06406910186409
STARLINK-1488           
1 45775U 20038AX  23299.84753432  .00013839  00000+0  59428-3 0  9996
2 45775  53.0679  95.1921 0005776 137.7371 222.4071 15.22968982186758
STARLINK-1489           
1 45776U 20038AY  23299.86840788  .00002435  00000+0  18226-3 0  9991
2 45776  53.0521 118.9518 0001310  84.5499 275.5639 15.06412527186414
STARLINK-1490           
1 45777U 20038AZ  23299.82021213  .00011258  00000+0  53703-3 0  9994
2 45777  53.0543 106.1338 0003447 161.3460 198.7662 15.19550697186599
STARLINK-1491           
1 45778U 20038BA  23299.84629720  .00009255  00000+0  63882-3 0  9997
2 45778  53.0521 119.0543 0001416  92.6992 267.4159 15.06432006186399
STARLINK-1492           
1 45779U 20038BB  23299.69990589  .00015510  00000+0  63195-3 0  9993
2 45779  53.0251  88.7160 0002551 185.9046 174.1921 15.24659762186812
STARLINK-1496           
1 45780U 20038BC  23299.85366475  .00001983  00000+0  15193-3 0  9998
2 45780  53.0529 119.0192 0001484  90.0740 270.0419 15.06405678186392
STARLINK-1497           
1 45781U 20038BD  23299.94581756  .00002824  00000+0  20833-3 0  9992
2 45781  53.0520 118.6038 0001357  84.0676 276.0468 15.06412420186414
STARLINK-1498           
1 45782U 20038BE  23299.85273126  .00013249  00000+0  53981-3 0  9995
2 45782  53.0478  87.3689 0006878 129.1296 231.0313 15.24781533186866
STARLINK-1505           
1 45783U 20038BF  23299.94212926  .00002146  00000+0  16286-3 0  9998
2 45783  53.0531 118.6221 0001582  83.6170 276.4999 15.06414818186423
STARLINK-1510           
1 45784U 20038BG  23299.84997510 -.00000807  00000+0 -35273-4 0  9999
2 45784  53.0533 119.0346 0001184  89.7528 270.3597 15.06412938186407
STARLINK-1512           
1 45785U 20038BH  23299.89790143  .00005110  00000+0  36154-3 0  9996
2 45785  53.0528 118.8222 0001348  98.1622 261.9520 15.06415548186416
STARLINK-1513           
1 45786U 20038BJ  23299.94949089 -.00001201  00000+0 -61775-4 0  9995
2 45786  53.0526 118.5820 0001391  86.6260 273.4888 15.06400706186420
STARLINK-1517           
1 45787U 20038BK  23299.82418055  .00005353  00000+0  37787-3 0  9992
2 45787  53.0521 119.1517 0001322  91.0982 269.0158 15.06407799186409
STARLINK-1522           
1 46027U 20055A   23299.59841890  .00028171  00000+0  19027-2 0  9999
2 46027  53.0566  50.1668 0001365  85.8961 274.2184 15.06397599178495
STARLINK-1523           
1 46028U 20055B   23299.54681487  .00022547  00000+0  15280-2 0  9997
2 46028  53.0562  50.3936 0001462  91.8292 268.2864 15.06392874178505
STARLINK-1526           
1 46029U 20055C   23299.60578916  .00000473  00000+0  50643-4 0  9995
2 46029  53.0544  50.1291 0001507  70.6138 289.5014 15.06407790178509
STARLINK-1534           
1 46030U 20055D   23299.62422037  .00000512  00000+0  53258-4 0  9990
2 46030  53.0561  50.0463 0001443 103.2112 256.9038 15.06393310178465
STARLINK-1544           
1 46031U 20055E   23299.62696379  .00000143  00000+0  28508-4 0  9993
2 46031  53.0571  50.0276 0001509  91.3177 268.7985 15.06390055178498
STARLINK-1555           
1 46032U 20055F   23299.59104362  .00026709  00000+0  18055-2 0  9996
2 46032  53.0560  50.1993 0001448  88.6759 271.4395 15.06393466178508
STARLINK-1556           
1 46033U 20055G   23299.57261723  .00005103  00000+0  36111-3 0  9999
2 46033  53.0556  50.2786 0001533  77.6019 282.5141 15.06410779178472
STARLINK-1557           
1 46034U 20055H   23299.57630480  .00023138  00000+0  15673-2 0  9997
2 46034  53.0565  50.2638 0001613  83.5906 276.5266 15.06395867178470
STARLINK-1558           
1 46035U 20055J   23299.84906370  .00035611  00000+0  23969-2 0  9998
2 46035  53.0552  49.0387 0001701  91.2727 268.8457 15.06409955178547
STARLINK-1560           
1 46036U 20055K   23299.63528181  .00027446  00000+0  18543-2 0  9995
2 46036  53.0547  49.9961 0001679  83.5723 276.5457 15.06399165178517
STARLINK-1565           
1 46037U 20055L   23299.63159446  .00006264  00000+0  43900-3 0  9991
2 46037  53.0550  50.0156 0001697  87.9001 272.2182 15.06405471178503
